OBJECT_NAME,OBJECT_ID,EPOCH,MEAN_MOTION,ECCENTRICITY,INCLINATION,RA_OF_ASC_NODE,ARG_OF_PERICENTER,MEAN_ANOMALY,EPHEMERIS_TYPE,CLASSIFICATION_TYPE,NORAD_CAT_ID,ELEMENT_SET_NO,REV_AT_EPOCH,BSTAR,MEAN_MOTION_DOT,MEAN_MOTION_DDOT
STARLINK-3185,2022-005AS,2025-10-27T23:04:20.276256,15.08840414,.00014311,53.2170,174.9704,78.3876,281.7276,0,U,51144,999,20870,.46222878E-4,.448E-5,0
STARLINK-3354,2022-005AU,2025-10-27T21:39:32.797152,15.08841653,.00014747,53.2172,175.2384,92.2757,267.8404,0,U,51146,999,20868,.81713205E-4,.1013E-4,0
STARLINK-3352,2022-005AV,2025-10-27T21:43:54.066432,15.14466390,.00064698,53.2131,183.4068,82.8665,277.3066,0,U,51147,999,20857,.17903087E-2,.33178E-3,0
STARLINK-3359,2022-005AW,2025-10-27T22:52:27.025248,15.08832820,.00014335,53.2153,185.2029,84.2909,275.8246,0,U,51148,999,20855,-.8003928E-5,-.415E-5,0
STARLINK-3360,2022-005AX,2025-10-27T21:54:05.374080,15.08834233,.00012857,53.2169,184.9987,89.9222,270.1918,0,U,51149,999,20855,.31526625E-4,.214E-5,0
STARLINK-3357,2022-005AY,2025-10-27T21:59:17.752416,15.08842328,.0001462,53.2166,174.7807,81.2888,278.8270,0,U,51150,999,20870,.56288036E-4,.608E-5,0
STARLINK-3361,2022-005AZ,2025-10-27T20:00:01.000224,15.98969891,.00044027,53.1878,80.7434,328.6185,129.5896,0,U,51151,999,599,.99068294E-3,.487887E-2,.11273923E-3
STARLINK-3364,2022-005BA,2025-10-27T22:56:15.830592,15.08838925,.00014162,53.2164,184.6005,90.8129,269.3025,0,U,51152,999,20856,-.12044346E-3,-.2204E-4,0
STARLINK-3181,2022-010F,2025-10-27T23:00:19.147680,15.08818493,.00010683,53.2149,154.9764,103.7302,256.3809,0,U,51461,999,20678,-.15755187E-3,-.2793E-4,0
STARLINK-3166,2022-010G,2025-10-27T21:21:00.007488,15.08839919,.00014006,53.2161,155.2947,93.4881,266.6271,0,U,51462,999,20677,.31661864E-4,.216E-5,0
STARLINK-3419,2022-010H,2025-10-27T20:42:32.827680,15.08832068,.00014231,53.2159,155.4046,83.0535,277.0619,0,U,51463,999,20646,.17029874E-3,.2423E-4,0
STARLINK-3189,2022-010J,2025-10-27T21:09:02.050272,15.08836493,.00013086,53.2144,155.3213,77.7119,282.4019,0,U,51464,999,20727,.39957679E-3,.6076E-4,0
STARLINK-3401,2022-010K,2025-10-27T21:03:43.464096,15.08839362,.00013267,53.2160,155.3386,84.5751,275.5393,0,U,51465,999,20727,-.65572502E-4,-.1331E-4,0
STARLINK-3178,2022-010M,2025-10-27T22:12:36.491904,15.08844564,.00014072,53.2163,155.1241,87.9139,272.2015,0,U,51467,999,20647,.69913888E-4,.825E-5,0
STARLINK-3174,2022-010N,2025-10-27T20:47:48.887520,15.08841821,.00012874,53.2156,155.3504,85.4909,274.6231,0,U,51468,999,20646,.37200169E-4,.304E-5,0
STARLINK-3182,2022-010P,2025-10-27T21:14:19.167648,15.08837958,.00014167,53.2160,155.3043,94.2151,265.9003,0,U,51469,999,20677,.35077184E-4,.27E-5,0
STARLINK-3415,2022-010S,2025-10-27T22:13:58.764576,15.08839052,.0001263,53.2158,155.0531,94.7423,265.3714,0,U,51472,999,20678,.59011788E-4,.651E-5,0
STARLINK-3528,2022-016A,2025-10-27T22:23:15.726624,15.08836772,.00014137,53.2164,205.0678,88.7873,271.3281,0,U,51714,999,20338,.28888588E-4,.172E-5,0
STARLINK-3533,2022-016B,2025-10-27T23:48:03.400992,15.08833757,.00014419,53.2161,204.8360,86.2311,273.8847,0,U,51715,999,20452,.10535471E-3,.1389E-4,0
STARLINK-3543,2022-016C,2025-10-27T22:21:53.293248,15.08841128,.00016399,53.2179,205.0939,79.2989,280.8188,0,U,51716,999,20338,.30366312E-4,.195E-5,0
STARLINK-3445,2022-016D,2025-10-27T22:28:35.067936,15.08826079,.0001268,53.2157,205.1609,90.1126,270.0012,0,U,51717,999,20338,.39443538E-4,.34E-5,0
STARLINK-3546,2022-016E,2025-10-27T21:55:23.709504,15.08834683,.00014531,53.2183,205.1783,85.7588,274.3570,0,U,51718,999,20450,.59350827E-4,.657E-5,0
STARLINK-3540,2022-016F,2025-10-27T22:16:35.882976,15.08845537,.00016758,53.2175,205.1886,84.0987,276.0196,0,U,51719,999,20338,.13140557E-3,.1804E-4,0
STARLINK-3526,2022-016G,2025-10-27T21:46:10.263072,15.08834923,.00012716,53.2172,205.1776,91.4299,268.6839,0,U,51720,999,20337,.9920377E-5,-.13E-5,0
STARLINK-3524,2022-016H,2025-10-27T22:02:04.693632,15.08826335,.00013238,53.2169,205.1648,86.4006,273.7138,0,U,51721,999,20338,.11466652E-4,-.105E-5,0
STARLINK-3535,2022-016J,2025-10-27T23:14:53.270304,15.08864644,.00016936,53.2166,204.9320,92.9735,267.1451,0,U,51722,999,20338,.61925793E-3,.9588E-4,0
STARLINK-3529,2022-016L,2025-10-27T23:04:16.883328,15.08816463,.00009908,53.2163,204.9610,95.8525,264.2581,0,U,51724,999,20338,-.16119348E-4,-.544E-5,0
STARLINK-3522,2022-016M,2025-10-27T21:44:47.798592,15.08833311,.00015332,53.2174,205.2130,97.2849,262.8317,0,U,51725,999,20337,.54163416E-4,.574E-5,0
STARLINK-3527,2022-016N,2025-10-27T22:28:30.554400,15.08824497,.0001102,53.2170,195.0738,102.6510,257.4605,0,U,51726,999,20352,.22175408E-3,.3242E-4,0
STARLINK-3532,2022-016P,2025-10-27T21:34:11.910144,15.08847260,.00012011,53.2188,205.2441,98.9841,261.1287,0,U,51727,999,20337,-.32132527E-4,-.799E-5,0
