STARLINK-3185           
1 51144U 22005AS  25300.96134579  .00000448  00000+0  46223-4 0  9994
2 51144  53.2170 174.9704 0001431  78.3876 281.7276 15.08840414208700
STARLINK-3354           
1 51146U 22005AU  25300.90246293  .00001013  00000+0  81713-4 0  9999
2 51146  53.2172 175.2384 0001474  92.2757 267.8404 15.08841653208683
STARLINK-3352           
1 51147U 22005AV  25300.90548688  .00033178  00000+0  17903-2 0  9998
2 51147  53.2131 183.4068 0006469  82.8665 277.3066 15.14466390208577
STARLINK-3359           
1 51148U 22005AW  25300.95309057 -.00000415  00000+0 -80039-5 0  9992
2 51148  53.2153 185.2029 0001433  84.2909 275.8246 15.08832820208551
STARLINK-3360           
1 51149U 22005AX  25300.91256220  .00000214  00000+0  31527-4 0  9994
2 51149  53.2169 184.9987 0001285  89.9222 270.1918 15.08834233208557
STARLINK-3357           
1 51150U 22005AY  25300.91617769  .00000608  00000+0  56288-4 0  9993
2 51150  53.2166 174.7807 0001462  81.2888 278.8270 15.08842328208701
STARLINK-3361           
1 51151U 22005AZ  25300.83334491  .00487887  11274-3  99068-3 0  9992
2 51151  53.1878  80.7434 0004402 328.6185 129.5896 15.98969891  5994
STARLINK-3364           
1 51152U 22005BA  25300.95573878 -.00002204  00000+0 -12044-3 0  9998
2 51152  53.2164 184.6005 0001416  90.8129 269.3025 15.08838925208569
STARLINK-3181           
1 51461U 22010F   25300.95855495 -.00002793  00000+0 -15755-3 0  9990
2 51461  53.2149 154.9764 0001068 103.7302 256.3809 15.08818493206783
STARLINK-3166           
1 51462U 22010G   25300.88958342  .00000216  00000+0  31662-4 0  9990
2 51462  53.2161 155.2947 0001400  93.4881 266.6271 15.08839919206774
STARLINK-3419           
1 51463U 22010H   25300.86287995  .00002423  00000+0  17030-3 0  9992
2 51463  53.2159 155.4046 0001423  83.0535 277.0619 15.08832068206466
STARLINK-3189           
1 51464U 22010J   25300.88127373  .00006076  00000+0  39958-3 0  9999
2 51464  53.2144 155.3213 0001308  77.7119 282.4019 15.08836493207276
STARLINK-3401           
1 51465U 22010K   25300.87758639 -.00001331  00000+0 -65573-4 0  9998
2 51465  53.2160 155.3386 0001326  84.5751 275.5393 15.08839362207270
STARLINK-3178           
1 51467U 22010M   25300.92542236  .00000825  00000+0  69914-4 0  9998
2 51467  53.2163 155.1241 0001407  87.9139 272.2015 15.08844564206476
STARLINK-3174           
1 51468U 22010N   25300.86653805  .00000304  00000+0  37200-4 0  9992
2 51468  53.2156 155.3504 0001287  85.4909 274.6231 15.08841821206465
STARLINK-3182           
1 51469U 22010P   25300.88494407  .00000270  00000+0  35077-4 0  9998
2 51469  53.2160 155.3043 0001416  94.2151 265.9003 15.08837958206770
STARLINK-3415           
1 51472U 22010S   25300.92637459  .00000651  00000+0  59012-4 0  9991
2 51472  53.2158 155.0531 0001263  94.7423 265.3714 15.08839052206788
STARLINK-3528           
1 51714U 22016A   25300.93282091  .00000172  00000+0  28889-4 0  9991
2 51714  53.2164 205.0678 0001413  88.7873 271.3281 15.08836772203386
STARLINK-3533           
1 51715U 22016B   25300.99170603  .00001389  00000+0  10535-3 0  9992
2 51715  53.2161 204.8360 0001441  86.2311 273.8847 15.08833757204522
STARLINK-3543           
1 51716U 22016C   25300.93186682  .00000195  00000+0  30366-4 0  9990
2 51716  53.2179 205.0939 0001639  79.2989 280.8188 15.08841128203389
STARLINK-3445           
1 51717U 22016D   25300.93651699  .00000340  00000+0  39444-4 0  9994
2 51717  53.2157 205.1609 0001268  90.1126 270.0012 15.08826079203389
STARLINK-3546           
1 51718U 22016E   25300.91346886  .00000657  00000+0  59351-4 0  9992
2 51718  53.2183 205.1783 0001453  85.7588 274.3570 15.08834683204501
STARLINK-3540           
1 51719U 22016F   25300.92819309  .00001804  00000+0  13141-3 0  9990
2 51719  53.2175 205.1886 0001675  84.0987 276.0196 15.08845537203386
STARLINK-3526           
1 51720U 22016G   25300.90706323 -.00000130  00000+0  99204-5 0  9999
2 51720  53.2172 205.1776 0001271  91.4299 268.6839 15.08834923203370
STARLINK-3524           
1 51721U 22016H   25300.91810988 -.00000105  00000+0  11467-4 0  9990
2 51721  53.2169 205.1648 0001323  86.4006 273.7138 15.08826335203381
STARLINK-3535           
1 51722U 22016J   25300.96867211  .00009588  00000+0  61926-3 0  9994
2 51722  53.2166 204.9320 0001693  92.9735 267.1451 15.08864644203384
STARLINK-3529           
1 51724U 22016L   25300.96130652 -.00000544  00000+0 -16119-4 0  9998
2 51724  53.2163 204.9610 0000990  95.8525 264.2581 15.08816463203381
STARLINK-3522           
1 51725U 22016M   25300.90610878  .00000574  00000+0  54163-4 0  9998
2 51725  53.2174 205.2130 0001533  97.2849 262.8317 15.08833311203375
STARLINK-3527           
1 51726U 22016N   25300.93646475  .00003242  00000+0  22175-3 0  9996
2 51726  53.2170 195.0738 0001102 102.6510 257.4605 15.08824497203522
STARLINK-3532           
1 51727U 22016P   25300.89874896 -.00000799  00000+0 -32133-4 0  9994
2 51727  53.2188 205.2441 0001201  98.9841 261.1287 15.08847260203375
